[{"OBJECT_NAME":"DONGPO 03","OBJECT_ID":"2022-098G","EPOCH":"2026-03-09T23:33:34.890048","MEAN_MOTION":15.70958192,"ECCENTRICITY":0.00010558,"INCLINATION":97.5452,"RA_OF_ASC_NODE":197.1326,"ARG_OF_PERICENTER":261.4023,"MEAN_ANOMALY":98.7119,"EPHEMERIS_TYPE":0,"CLASSIFICATION_TYPE":"U","NORAD_CAT_ID":53450,"ELEMENT_SET_NO":999,"REV_AT_EPOCH":19946,"BSTAR":0.0010143925,"MEAN_MOTION_DOT":0.00128253,"MEAN_MOTION_DDOT":0},{"OBJECT_NAME":"STARLINK-11416 [DTC]","OBJECT_ID":"2025-008H","EPOCH":"2026-03-09T16:00:03.000096","MEAN_MOTION":15.7076383,"ECCENTRICITY":0.00017438,"INCLINATION":42.9999,"RA_OF_ASC_NODE":125.9543,"ARG_OF_PERICENTER":264.6665,"MEAN_ANOMALY":112.9544,"EPHEMERIS_TYPE":0,"CLASSIFICATION_TYPE":"U","NORAD_CAT_ID":62594,"ELEMENT_SET_NO":999,"REV_AT_EPOCH":600,"BSTAR":0.00098116831,"MEAN_MOTION_DOT":0.00126983,"MEAN_MOTION_DDOT":0}]
